[{"OBJECT_NAME":"SWARM B","OBJECT_ID":"2013-067A","EPOCH":"2026-03-09T22:20:48.706656","MEAN_MOTION":15.27862638,"ECCENTRICITY":0.00036996,"INCLINATION":87.749,"RA_OF_ASC_NODE":12.4162,"ARG_OF_PERICENTER":86.3179,"MEAN_ANOMALY":273.8493,"EPHEMERIS_TYPE":0,"CLASSIFICATION_TYPE":"U","NORAD_CAT_ID":39451,"ELEMENT_SET_NO":999,"REV_AT_EPOCH":66808,"BSTAR":0.00020534236,"MEAN_MOTION_DOT":5.616e-5,"MEAN_MOTION_DDOT":0},{"OBJECT_NAME":"STARLINK-31686","OBJECT_ID":"2024-076R","EPOCH":"2026-03-09T05:09:20.728800","MEAN_MOTION":15.27598261,"ECCENTRICITY":0.00012071,"INCLINATION":43.0054,"RA_OF_ASC_NODE":11.3685,"ARG_OF_PERICENTER":273.6352,"MEAN_ANOMALY":86.4362,"EPHEMERIS_TYPE":0,"CLASSIFICATION_TYPE":"U","NORAD_CAT_ID":59579,"ELEMENT_SET_NO":999,"REV_AT_EPOCH":10643,"BSTAR":7.4477221e-5,"MEAN_MOTION_DOT":1.789e-5,"MEAN_MOTION_DDOT":0}]
